GPS BIIR-2  (PRN 13)    
1 24876C 97035A   22329.83090278 -.00000000  00000-0  00000-0 0  3294
2 24876  55.5338 149.3769 0065032  53.3734 255.6076  2.00563618    11
GPS BIIR-4  (PRN 20)    
1 26360C 00025A   22329.83090278 -.00000000  00000-0  00000-0 0  3297
2 26360  54.1919  72.2107 0047634 189.7898 209.9719  2.00560981    10
GPS BIIR-6  (PRN 22)    
1 26605C 00071A   22329.83090278 -.00000000  00000-0  00000-0 0  3290
2 26605  55.1205 146.3006 0137695 254.5670 268.5895  2.00553505    18
GPS BIIR-8  (PRN 16)    
1 27663C 03005A   22329.83090278  .00000000  00000-0  00000-0 0  3294
2 27663  55.4085 266.6509 0129153  41.5969 333.9210  2.00554936    18
GPS BIIR-9  (PRN 21)    
1 27704C 03010A   22329.83090278 -.00000000  00000-0  00000-0 0  3297
2 27704  55.0729  16.7806 0247486 310.1179 281.7949  2.00562873    15
GPS BIIR-11 (PRN 19)    
1 28190C 04009A   22329.83090278  .00000000  00000-0  00000-0 0  3295
2 28190  55.9013 327.6686 0088282 127.8981  42.0671  2.00556511    13
GPS BIIR-13 (PRN 02)    
1 28474C 04045A   22329.83090278 -.00000000  00000-0  00000-0 0  3291
2 28474  55.3979  16.9834 0202513 282.0305 100.2205  2.00561007    11
GPS BIIRM-1 (PRN 17)    
1 28874C 05038A   22329.83090278  .00000000  00000-0  00000-0 0  3297
2 28874  55.9610 325.1092 0140862 276.5785 282.6274  2.00564865    18
GPS BIIRM-2 (PRN 31)    
1 29486C 06042A   22329.83090278  .00000000  00000-0  00000-0 0  3293
2 29486  54.7002 202.8633 0106301  25.7667  87.9371  2.00569372    17
GPS BIIRM-3 (PRN 12)    
1 29601C 06052A   22329.83090278  .00000000  00000-0  00000-0 0  3293
2 29601  55.4200 265.5959 0084330  75.0410  76.2623  2.00559629    17
GPS BIIRM-4 (PRN 15)    
1 32260C 07047A   22329.83090278 -.00000000  00000-0  00000-0 0  3294
2 32260  53.3615 133.8548 0145266  66.2271 226.7888  2.00566504    18
GPS BIIRM-5 (PRN 29)    
1 32384C 07062A   22329.83090278  .00000000  00000-0  00000-0 0  3297
2 32384  56.0853 325.8918 0019741 146.9836 272.0771  2.00570438    10
GPS BIIRM-6 (PRN 07)    
1 32711C 08012A   22329.83090278  .00000000  00000-0  00000-0 0  3297
2 32711  54.4630 201.7616 0166358 232.3353 118.1218  2.00569611    14
GPS BIIRM-8 (PRN 05)    
1 35752C 09043A   22329.83090278 -.00000000  00000-0  00000-0 0  3291
2 35752  55.1987  79.0397 0056677  64.5307 299.8388  2.00575795    18
GPS BIIF-1  (PRN 25)    
1 36585C 10022A   22329.83090278  .00000000  00000-0  00000-0 0  3294
2 36585  54.7084 261.0030 0106580  56.9013  69.4549  2.00573494    15
GPS BIIF-2  (PRN 01)    
1 37753C 11036A   22329.83090278 -.00000000  00000-0  00000-0 0  3299
2 37753  56.6691  22.4298 0118605  53.2531 154.6173  2.00565892    12
GPS BIIF-3  (PRN 24)    
1 38833C 12053A   22329.83090278  .00000000  00000-0  00000-0 0  3298
2 38833  53.5200 196.7462 0132968  48.8393 171.6642  2.00563379    14
GPS BIIF-4  (PRN 27)    
1 39166C 13023A   22329.83090278  .00000000  00000-0  00000-0 0  3296
2 39166  55.5829 321.4187 0106906  38.0925 284.3357  2.00565126    16
GPS BIIF-5  (PRN 30)    
1 39533C 14008A   22329.83090278  .00000000  00000-0  00000-0 0  3298
2 39533  53.6112 202.2699 0060467 209.0959 110.0116  2.00562237    18
GPS BIIF-6  (PRN 06)    
1 39741C 14026A   22329.83090278 -.00000000  00000-0  00000-0 0  3290
2 39741  56.6280  21.9549 0028592 304.7091 172.9890  2.00576784    19
GPS BIIF-7  (PRN 09)    
1 40105C 14045A   22329.83090278 -.00000000  00000-0  00000-0 0  3297
2 40105  54.7303 140.3606 0024388 112.7470 301.8227  2.00558054    14
GPS BIIF-8  (PRN 03)    
1 40294C 14068A   22329.83090278 -.00000000  00000-0  00000-0 0  3291
2 40294  55.9419  81.5692 0042248  58.6960  90.8484  2.00552540    16
GPS BIIF-9  (PRN 26)    
1 40534C 15013A   22329.83090278  .00000000  00000-0  00000-0 0  3298
2 40534  53.6080 258.0086 0074391  21.3427  26.4509  2.00571892    13
GPS BIIF-10 (PRN 08)    
1 40730C 15033A   22329.83090278  .00000000  00000-0  00000-0 0  3298
2 40730  55.0774 320.1700 0078253   7.9672 285.5680  2.00569562    13
GPS BIIF-11 (PRN 10)    
1 41019C 15062A   22329.83090278 -.00000000  00000-0  00000-0 0  3292
2 41019  55.9288  81.4152 0083805 218.4847  36.8647  2.00562324    12
GPS BIIF-12 (PRN 32)    
1 41328C 16007A   22329.83090278 -.00000000  00000-0  00000-0 0  3295
2 41328  54.9431 141.0706 0064262 229.6826 322.8892  2.00563241    18
GPS BIII-1  (PRN 04)    
1 43873C 18109A   22329.83090278 -.00000000  00000-0  00000-0 0  3297
2 43873  55.1218 143.5250 0022012 187.2886 256.6107  2.00556296    19
GPS BIII-2  (PRN 18)    
1 44506C 19056A   22329.83090278 -.00000000  00000-0  00000-0 0  3293
2 44506  55.7444  22.6393 0029740 184.7972 159.5703  2.00559159    12
GPS BIII-3  (PRN 23)    
1 45854C 20041A   22329.83090278 -.00000000  00000-0  00000-0 0  3296
2 45854  55.6483  79.9091 0028936 181.6146 102.4164  2.00567873    16
GPS BIII-4  (PRN 14)    
1 46826C 20078A   22329.83090278  .00000000  00000-0  00000-0 0  3295
2 46826  54.4669 263.5456 0024408 190.9383  69.6103  2.00564902    18
GPS BIII-5  (PRN 11)    
1 48859C 21054A   22329.83090278 -.00000000  00000-0  00000-0 0  3299
2 48859  55.2540  24.5601 0008977 210.3920 235.0208  2.00563785    10
